ONEWEB-0369             
1 49295U 21090S   24035.78032648  .00000061  00000+0  12012-3 0  9998
2 49295  87.9190 116.8437 0002021 103.3174 256.8184 13.19725725112537
ONEWEB-0370             
1 49296U 21090T   24035.69662856  .00000038  00000+0  61273-4 0  9997
2 49296  87.9154  86.3128 0001882  97.4192 262.7155 13.20771512115885
ONEWEB-0371             
1 49297U 21090U   24035.71239714  .00000038  00000+0  61757-4 0  9991
2 49297  87.9190 116.8475 0001940  99.6801 260.4551 13.19726775112562
ONEWEB-0372             
1 49298U 21090V   24035.68544476  .00000009  00000+0 -98122-5 0  9998
2 49298  87.9155  86.3227 0002125  97.9600 262.1774 13.20771396115856
ONEWEB-0373             
1 49299U 21090W   24035.63665257  .00000089  00000+0  18597-3 0  9998
2 49299  87.9155  86.3506 0002088 107.5363 252.5998 13.20771621117033
ONEWEB-0374             
1 49300U 21090X   24035.71469709  .00000195  00000+0  49079-3 0  9991
2 49300  87.8952 101.5773 0001963 104.6630 255.4718 13.14502267114122
ONEWEB-0375             
1 49301U 21090Y   24035.69977005  .00000092  00000+0  19332-3 0  9997
2 49301  87.9154  86.3131 0001513 119.7659 240.3625 13.20769337116543
ONEWEB-0376             
1 49302U 21090Z   24035.71081837  .00000065  00000+0  13024-3 0  9992
2 49302  87.9183 116.8648 0002140  99.3759 260.7616 13.19723654112563
